TEVEL2-2                
1 63219U 25052K   26068.64848259  .00020339  00000+0  69428-3 0  9991
2 63219  97.3987 324.7700 0004693 105.7930 254.3828 15.30343745 54855
239ALFEROV (RS61S)      
1 64881U 25155F   26068.90733082  .00019457  00000+0  67233-3 0  9998
2 64881  97.4469  37.6373 0008487 151.5904 208.5800 15.29933217 65612
